{"spkid": "50763292", "covariance": {"epoch": "2457672.5", "elements": [{"label": "e", "name": "e", "sigma": 9.30524269241615e-08, "title": "eccentricity", "value": ".3091656393659427", "units": null}, {"name": "q", "sigma": 1.07321733690441e-07, "units": "au", "title": "perihelion distance", "value": ".7898871562398442", "label": "q"}, {"label": "tp", "units": "TDB", "title": "time of perihelion passage", "value": "2457601.972271863539", "sigma": 5.59523986832949e-05, "name": "tp"}, {"label": "node", "name": "om", "sigma": 2.59939299327132e-05, "units": "deg", "title": "longitude of the ascending node", "value": "1.752481712801069"}, {"label": "peri", "title": "argument of perihelion", "value": "280.19019790793", "units": "deg", "name": "w", "sigma": 2.72477022954336e-05}, {"name": "i", "sigma": 1.48919736080866e-05, "title": "inclination", "value": "19.34536980816258", "units": "deg", "label": "i"}], "data": [["8.658754156476412E-15", "-9.982712444096832E-15", "4.394164824182041E-12", "1.518269683750138E-12", "1.61629439545029E-12", "-4.182606277392979E-13"], ["-9.982712444096832E-15", "1.151795452232198E-14", "-5.103406524970777E-12", "-1.760776531217496E-12", "-1.876451122462146E-12", "4.845931278596225E-13"], ["4.394164824182041E-12", "-5.103406524970777E-12", "3.130670918414382E-9", "9.96773541941367E-10", "1.172446296000327E-9", "-2.717608752866128E-10"], ["1.518269683750138E-12", "-1.760776531217496E-12", "9.96773541941367E-10", "6.756843933468022E-10", "6.041168355243844E-11", "-2.10058037431587E-10"], ["1.61629439545029E-12", "-1.876451122462146E-12", "1.172446296000327E-9", "6.041168355243844E-11", "7.42437280380577E-10", "-2.156368564677639E-12"], ["-4.182606277392979E-13", "4.845931278596225E-13", "-2.717608752866128E-10", "-2.10058037431587E-10", "-2.156368564677639E-12", "2.217708779439483E-10"]], "labels": ["e", "q", "tp", "node", "peri", "i"]}, "elements": [{"label": "e", "sigma": "9.3033E-8", "name": "e", "value": ".3093181921142028", "title": "eccentricity", "units": null}, {"units": "au", "title": "semi-major axis", "value": "1.143496156834068", "sigma": "4.3866E-9", "name": "a", "label": "a"}, {"label": "q", "sigma": "1.0734E-7", "name": "q", "units": "au", "title": "perihelion distance", "value": ".7897919929126156"}, {"units": "deg", "title": "inclination; angle with respect to x-y ecliptic plane", "value": "19.34194883278385", "sigma": "1.4895E-5", "name": "i", "label": "i"}, {"label": "node", "units": "deg", "value": "1.703000708910996", "title": "longitude of the ascending node", "name": "om", "sigma": "2.5989E-5"}, {"label": "peri", "name": "w", "sigma": "2.7265E-5", "units": "deg", "value": "280.23761332", "title": "argument of perihelion"}, {"label": "M", "units": "deg", "title": "mean anomaly", "value": "20.70793229052543", "name": "ma", "sigma": "4.057E-5"}, {"label": "tp", "title": "time of perihelion passage", "value": "2461174.808780102631", "units": "TDB", "sigma": "5.0349E-5", "name": "tp"}, {"name": "per", "sigma": "2.57E-6", "title": "sidereal orbital period", "value": "446.6326735713905", "units": "d", "label": "period"}, {"sigma": "4.638E-9", "name": "n", "value": ".8060314914297398", "title": "mean motion", "units": "deg/d", "label": "n"}, {"title": "aphelion distance", "value": "1.497200320755521", "units": "au", "name": "ad", "sigma": "5.7434E-9", "label": "Q"}], "epoch": "2461200.5"}